FLOCK 4G-36             
1 62675U 25009BU  26068.70726311  .00013573  00000+0  51122-3 0  9993
2 62675  97.4053 151.0513 0003474 324.2456  35.8550 15.27209548 63701
STARLINK-36425          
1 67467U 26008Y   26068.39173285  .00027535  00000+0  10060-2 0  9996
2 67467  42.9947 207.1682 0001864 144.4244 215.6732 15.27592602  9526
